[{"OBJECT_NAME":"JILIN-1 05","OBJECT_ID":"2017-074B","EPOCH":"2026-03-09T21:56:30.612480","MEAN_MOTION":15.3245271,"ECCENTRICITY":0.00045948,"INCLINATION":97.4781,"RA_OF_ASC_NODE":173.8936,"ARG_OF_PERICENTER":206.4038,"MEAN_ANOMALY":153.6971,"EPHEMERIS_TYPE":0,"CLASSIFICATION_TYPE":"U","NORAD_CAT_ID":43023,"ELEMENT_SET_NO":999,"REV_AT_EPOCH":45879,"BSTAR":0.00026108793,"MEAN_MOTION_DOT":8.104e-5,"MEAN_MOTION_DDOT":0},{"OBJECT_NAME":"STARLINK-35151","OBJECT_ID":"2025-210C","EPOCH":"2026-03-09T22:04:50.863296","MEAN_MOTION":15.30217862,"ECCENTRICITY":9.524e-5,"INCLINATION":53.1605,"RA_OF_ASC_NODE":306.1991,"ARG_OF_PERICENTER":100.3948,"MEAN_ANOMALY":259.7161,"EPHEMERIS_TYPE":0,"CLASSIFICATION_TYPE":"U","NORAD_CAT_ID":65624,"ELEMENT_SET_NO":999,"REV_AT_EPOCH":2768,"BSTAR":0.0011529032,"MEAN_MOTION_DOT":0.00033961,"MEAN_MOTION_DDOT":0}]
